{
"type": "FeatureCollection",
"name": "ICA_Otonio2025b",
"crs": { "type": "name", "properties": { "name": "urn:ogc:def:crs:OGC:1.3:CRS84" } },
"features": [
{ "type": "Feature", "properties": { "Cuenca": "Alta", "Nombre": "A", "Latitud": -34.6457, "Longitud": -59.037031, "ICA": 51.45, "Calidad": "Media", "Temperatura (°C)": 12.8, "pH (upH)": 6.91, "Conductividad (µS/cm)": 347.1, "Sólidos Disueltos Totales (mg/L)": 256, "Turbiedad (NTU)": 42.4, "Saturación OD (%)": 9.34, "Nitratos (mg/L)": 0.0, "Fosfatos Totales (mg/L)": 0.98, "DBO5 (mg/L)": 5.0, "DQO (mg/L)": "<10", "E. Coli (UFC/100mL)": 300 }, "geometry": { "type": "Point", "coordinates": [ -59.037031, -34.645700000000268 ] } },
{ "type": "Feature", "properties": { "Cuenca": "Alta", "Nombre": "LC1", "Latitud": -34.685175, "Longitud": -59.027692, "ICA": 49.02, "Calidad": "Mala", "Temperatura (°C)": 13.7, "pH (upH)": 8.09, "Conductividad (µS/cm)": 1016.0, "Sólidos Disueltos Totales (mg/L)": 595, "Turbiedad (NTU)": 10.0, "Saturación OD (%)": 9.22, "Nitratos (mg/L)": 12.7, "Fosfatos Totales (mg/L)": 0.73, "DBO5 (mg/L)": 3.0, "DQO (mg/L)": "<10", "E. Coli (UFC/100mL)": 80 }, "geometry": { "type": "Point", "coordinates": [ -59.027692, -34.685175000000278 ] } },
{ "type": "Feature", "properties": { "Cuenca": "Alta", "Nombre": "LC2", "Latitud": -34.664375, "Longitud": -58.946078, "ICA": 42.14, "Calidad": "Mala", "Temperatura (°C)": 12.7, "pH (upH)": 7.86, "Conductividad (µS/cm)": 887.9, "Sólidos Disueltos Totales (mg/L)": 528, "Turbiedad (NTU)": 41.1, "Saturación OD (%)": 6.69, "Nitratos (mg/L)": 17.4, "Fosfatos Totales (mg/L)": 2.2, "DBO5 (mg/L)": 1.9, "DQO (mg/L)": "<10", "E. Coli (UFC/100mL)": 350 }, "geometry": { "type": "Point", "coordinates": [ -58.946078, -34.664375000000277 ] } },
{ "type": "Feature", "properties": { "Cuenca": "Alta", "Nombre": "LC3", "Latitud": -34.665236, "Longitud": -58.929597, "ICA": 45.68, "Calidad": "Mala", "Temperatura (°C)": 13.8, "pH (upH)": 7.89, "Conductividad (µS/cm)": 829.4, "Sólidos Disueltos Totales (mg/L)": 519, "Turbiedad (NTU)": 28.0, "Saturación OD (%)": 8.24, "Nitratos (mg/L)": 5.0, "Fosfatos Totales (mg/L)": 2.51, "DBO5 (mg/L)": 1.9, "DQO (mg/L)": "10", "E. Coli (UFC/100mL)": 800 }, "geometry": { "type": "Point", "coordinates": [ -58.929597, -34.665236000000263 ] } },
{ "type": "Feature", "properties": { "Cuenca": "Alta", "Nombre": "D1", "Latitud": -34.757308, "Longitud": -58.993669, "ICA": 49.12, "Calidad": "Mala", "Temperatura (°C)": 11.9, "pH (upH)": 7.65, "Conductividad (µS/cm)": 1007.0, "Sólidos Disueltos Totales (mg/L)": 615, "Turbiedad (NTU)": 38.2, "Saturación OD (%)": 6.66, "Nitratos (mg/L)": 0.8, "Fosfatos Totales (mg/L)": 1.41, "DBO5 (mg/L)": 4.0, "DQO (mg/L)": "<10", "E. Coli (UFC/100mL)": 100 }, "geometry": { "type": "Point", "coordinates": [ -58.993669, -34.757308000000272 ] } },
{ "type": "Feature", "properties": { "Cuenca": "Alta", "Nombre": "D2", "Latitud": -34.722708, "Longitud": -58.955797, "ICA": 49.59, "Calidad": "Mala", "Temperatura (°C)": 13.6, "pH (upH)": 8.0, "Conductividad (µS/cm)": 1401.0, "Sólidos Disueltos Totales (mg/L)": 834, "Turbiedad (NTU)": 22.6, "Saturación OD (%)": 8.17, "Nitratos (mg/L)": 6.2, "Fosfatos Totales (mg/L)": 0.8, "DBO5 (mg/L)": 3.0, "DQO (mg/L)": "<10", "E. Coli (UFC/100mL)": 70 }, "geometry": { "type": "Point", "coordinates": [ -58.955797, -34.722708000000267 ] } },
{ "type": "Feature", "properties": { "Cuenca": "Alta", "Nombre": "D3", "Latitud": -34.698019, "Longitud": -58.909403, "ICA": 42.51, "Calidad": "Mala", "Temperatura (°C)": 13.0, "pH (upH)": 7.86, "Conductividad (µS/cm)": 1189.0, "Sólidos Disueltos Totales (mg/L)": 715, "Turbiedad (NTU)": 26.3, "Saturación OD (%)": 7.6, "Nitratos (mg/L)": 3.5, "Fosfatos Totales (mg/L)": 1.47, "DBO5 (mg/L)": 13.0, "DQO (mg/L)": "<10", "E. Coli (UFC/100mL)": 140 }, "geometry": { "type": "Point", "coordinates": [ -58.920983333326234, -34.699394443961097 ] } },
{ "type": "Feature", "properties": { "Cuenca": "Media", "Nombre": "PR", "Latitud": -34.684914, "Longitud": -58.857875, "ICA": 49.05, "Calidad": "Mala", "Temperatura (°C)": 11.0, "pH (upH)": 7.43, "Conductividad (µS/cm)": 184.6, "Sólidos Disueltos Totales (mg/L)": 126, "Turbiedad (NTU)": 58.1, "Saturación OD (%)": 9.71, "Nitratos (mg/L)": 10.3, "Fosfatos Totales (mg/L)": 1.41, "DBO5 (mg/L)": 4.0, "DQO (mg/L)": "19", "E. Coli (UFC/100mL)": 100 }, "geometry": { "type": "Point", "coordinates": [ -58.854131275476909, -34.684651292392211 ] } },
{ "type": "Feature", "properties": { "Cuenca": "Media", "Nombre": "Mi", "Latitud": -34.666214, "Longitud": -58.781417, "ICA": 47.93, "Calidad": "Mala", "Temperatura (°C)": 11.8, "pH (upH)": 7.62, "Conductividad (µS/cm)": 242.1, "Sólidos Disueltos Totales (mg/L)": 241, "Turbiedad (NTU)": 55.4, "Saturación OD (%)": 8.47, "Nitratos (mg/L)": 7.6, "Fosfatos Totales (mg/L)": 1.84, "DBO5 (mg/L)": 1.9, "DQO (mg/L)": "11", "E. Coli (UFC/100mL)": 500 }, "geometry": { "type": "Point", "coordinates": [ -58.781417, -34.666214000000274 ] } },
{ "type": "Feature", "properties": { "Cuenca": "Media", "Nombre": "R7", "Latitud": -34.659222, "Longitud": -58.756028, "ICA": 51.52, "Calidad": "Media", "Temperatura (°C)": 11.3, "pH (upH)": 7.54, "Conductividad (µS/cm)": 249.5, "Sólidos Disueltos Totales (mg/L)": 154, "Turbiedad (NTU)": 53.0, "Saturación OD (%)": 8.78, "Nitratos (mg/L)": 7.7, "Fosfatos Totales (mg/L)": 1.53, "DBO5 (mg/L)": 1.9, "DQO (mg/L)": "18", "E. Coli (UFC/100mL)": 100 }, "geometry": { "type": "Point", "coordinates": [ -58.756028, -34.659222000000277 ] } },
{ "type": "Feature", "properties": { "Cuenca": "Media", "Nombre": "In", "Latitud": -34.651222, "Longitud": -58.745694, "ICA": 54.7, "Calidad": "Media", "Temperatura (°C)": 11.9, "pH (upH)": 7.67, "Conductividad (µS/cm)": 314.3, "Sólidos Disueltos Totales (mg/L)": 200, "Turbiedad (NTU)": 56.8, "Saturación OD (%)": 9.37, "Nitratos (mg/L)": 7.1, "Fosfatos Totales (mg/L)": 1.77, "DBO5 (mg/L)": 1.9, "DQO (mg/L)": "15", "E. Coli (UFC/100mL)": 200 }, "geometry": { "type": "Point", "coordinates": [ -58.745694, -34.651222000000274 ] } },
{ "type": "Feature", "properties": { "Cuenca": "Media", "Nombre": "An", "Latitud": -34.642808, "Longitud": -58.732561, "ICA": 37.06, "Calidad": "Mala", "Temperatura (°C)": 12.8, "pH (upH)": 7.67, "Conductividad (µS/cm)": 381.6, "Sólidos Disueltos Totales (mg/L)": 230, "Turbiedad (NTU)": 61.4, "Saturación OD (%)": 8.88, "Nitratos (mg/L)": 9.6, "Fosfatos Totales (mg/L)": 1.96, "DBO5 (mg/L)": 17.0, "DQO (mg/L)": "31", "E. Coli (UFC/100mL)": 6000 }, "geometry": { "type": "Point", "coordinates": [ -58.732561, -34.642808000000265 ] } },
{ "type": "Feature", "properties": { "Cuenca": "Media", "Nombre": "MF", "Latitud": -34.608306, "Longitud": -58.71725, "ICA": 33.79, "Calidad": "Mala", "Temperatura (°C)": 12.6, "pH (upH)": 7.66, "Conductividad (µS/cm)": 357.3, "Sólidos Disueltos Totales (mg/L)": 225, "Turbiedad (NTU)": 60.4, "Saturación OD (%)": 8.14, "Nitratos (mg/L)": 10.6, "Fosfatos Totales (mg/L)": 2.02, "DBO5 (mg/L)": 28.0, "DQO (mg/L)": "83", "E. Coli (UFC/100mL)": 90000 }, "geometry": { "type": "Point", "coordinates": [ -58.71725, -34.608306000000283 ] } },
{ "type": "Feature", "properties": { "Cuenca": "Media", "Nombre": "GC", "Latitud": -34.582083, "Longitud": -58.6795, "ICA": 45.43, "Calidad": "Mala", "Temperatura (°C)": 12.4, "pH (upH)": 7.61, "Conductividad (µS/cm)": 382.6, "Sólidos Disueltos Totales (mg/L)": 229, "Turbiedad (NTU)": 53.9, "Saturación OD (%)": 8.01, "Nitratos (mg/L)": 10.6, "Fosfatos Totales (mg/L)": 2.02, "DBO5 (mg/L)": 1.9, "DQO (mg/L)": "<10", "E. Coli (UFC/100mL)": 3000 }, "geometry": { "type": "Point", "coordinates": [ -58.6795, -34.582083000000267 ] } },
{ "type": "Feature", "properties": { "Cuenca": "Media", "Nombre": "R201", "Latitud": -34.566492, "Longitud": -58.65595, "ICA": 39.52, "Calidad": "Mala", "Temperatura (°C)": 13.1, "pH (upH)": 7.65, "Conductividad (µS/cm)": 509.1, "Sólidos Disueltos Totales (mg/L)": 318, "Turbiedad (NTU)": 55.3, "Saturación OD (%)": 6.99, "Nitratos (mg/L)": 14.3, "Fosfatos Totales (mg/L)": 2.75, "DBO5 (mg/L)": 4.0, "DQO (mg/L)": "21", "E. Coli (UFC/100mL)": 11000 }, "geometry": { "type": "Point", "coordinates": [ -58.65595, -34.56649200000026 ] } },
{ "type": "Feature", "properties": { "Cuenca": "Media", "Nombre": "R8", "Latitud": -34.562139, "Longitud": -58.644833, "ICA": 31.39, "Calidad": "Mala", "Temperatura (°C)": 13.3, "pH (upH)": 7.58, "Conductividad (µS/cm)": 586.2, "Sólidos Disueltos Totales (mg/L)": 383, "Turbiedad (NTU)": 69.7, "Saturación OD (%)": 6.35, "Nitratos (mg/L)": 13.4, "Fosfatos Totales (mg/L)": 2.75, "DBO5 (mg/L)": 20.0, "DQO (mg/L)": "86", "E. Coli (UFC/100mL)": 13000 }, "geometry": { "type": "Point", "coordinates": [ -58.644833, -34.562139000000272 ] } },
{ "type": "Feature", "properties": { "Cuenca": "Media", "Nombre": "CE", "Latitud": -34.54, "Longitud": -58.611667, "ICA": 34.87, "Calidad": "Mala", "Temperatura (°C)": 13.5, "pH (upH)": 7.6, "Conductividad (µS/cm)": 515.5, "Sólidos Disueltos Totales (mg/L)": 340, "Turbiedad (NTU)": 48.3, "Saturación OD (%)": 7.1, "Nitratos (mg/L)": 14.9, "Fosfatos Totales (mg/L)": 3.0, "DBO5 (mg/L)": 9.0, "DQO (mg/L)": "25", "E. Coli (UFC/100mL)": 80000 }, "geometry": { "type": "Point", "coordinates": [ -58.611667, -34.540000000000276 ] } },
{ "type": "Feature", "properties": { "Cuenca": "Baja", "Nombre": "R202", "Latitud": -34.48075, "Longitud": -58.604056, "ICA": 34.85, "Calidad": "Mala", "Temperatura (°C)": 13.1, "pH (upH)": 7.73, "Conductividad (µS/cm)": 630.0, "Sólidos Disueltos Totales (mg/L)": 396, "Turbiedad (NTU)": 40.0, "Saturación OD (%)": 4.2, "Nitratos (mg/L)": 10.7, "Fosfatos Totales (mg/L)": 2.75, "DBO5 (mg/L)": 9.0, "DQO (mg/L)": "45", "E. Coli (UFC/100mL)": 60000 }, "geometry": { "type": "Point", "coordinates": [ -58.604056, -34.480750000000278 ] } },
{ "type": "Feature", "properties": { "Cuenca": "Baja", "Nombre": "R24", "Latitud": -34.443669, "Longitud": -58.595369, "ICA": 31.51, "Calidad": "Mala", "Temperatura (°C)": 13.0, "pH (upH)": 7.44, "Conductividad (µS/cm)": 655.5, "Sólidos Disueltos Totales (mg/L)": 514, "Turbiedad (NTU)": 33.3, "Saturación OD (%)": 5.3, "Nitratos (mg/L)": 12.7, "Fosfatos Totales (mg/L)": 2.75, "DBO5 (mg/L)": 20.0, "DQO (mg/L)": "47", "E. Coli (UFC/100mL)": 60000 }, "geometry": { "type": "Point", "coordinates": [ -58.595369, -34.443669000000284 ] } },
{ "type": "Feature", "properties": { "Cuenca": "Baja", "Nombre": "R27", "Latitud": -34.405311, "Longitud": -58.623864, "ICA": 38.07, "Calidad": "Mala", "Temperatura (°C)": 12.6, "pH (upH)": 7.61, "Conductividad (µS/cm)": 877.1, "Sólidos Disueltos Totales (mg/L)": 544, "Turbiedad (NTU)": 32.1, "Saturación OD (%)": 3.0, "Nitratos (mg/L)": 15.2, "Fosfatos Totales (mg/L)": 2.39, "DBO5 (mg/L)": 5.0, "DQO (mg/L)": "16", "E. Coli (UFC/100mL)": 3500 }, "geometry": { "type": "Point", "coordinates": [ -58.623864, -34.405311000000275 ] } },
{ "type": "Feature", "properties": { "Cuenca": "Baja", "Nombre": "RCh", "Latitud": -34.410222, "Longitud": -58.592922, "ICA": 41.01, "Calidad": "Mala", "Temperatura (°C)": 13.9, "pH (upH)": 7.06, "Conductividad (µS/cm)": 637.6, "Sólidos Disueltos Totales (mg/L)": 394, "Turbiedad (NTU)": 11.9, "Saturación OD (%)": 1.5, "Nitratos (mg/L)": 0.4, "Fosfatos Totales (mg/L)": 3.37, "DBO5 (mg/L)": 15.0, "DQO (mg/L)": "31", "E. Coli (UFC/100mL)": 9000 }, "geometry": { "type": "Point", "coordinates": [ -58.592922, -34.41022200000026 ] } },
{ "type": "Feature", "properties": { "Cuenca": "Baja", "Nombre": "Ti", "Latitud": -34.422222, "Longitud": -58.581556, "ICA": 42.07, "Calidad": "Mala", "Temperatura (°C)": 12.7, "pH (upH)": 7.48, "Conductividad (µS/cm)": 658.5, "Sólidos Disueltos Totales (mg/L)": 408, "Turbiedad (NTU)": 38.2, "Saturación OD (%)": 3.9, "Nitratos (mg/L)": 11.4, "Fosfatos Totales (mg/L)": 2.39, "DBO5 (mg/L)": 1.9, "DQO (mg/L)": "<10", "E. Coli (UFC/100mL)": 3500 }, "geometry": { "type": "Point", "coordinates": [ -58.581556, -34.422222000000268 ] } }
]
}
