{
"type": "FeatureCollection",
"name": "ICA_Verano2025b",
"crs": { "type": "name", "properties": { "name": "urn:ogc:def:crs:OGC:1.3:CRS84" } },
"features": [
{ "type": "Feature", "properties": { "Cuenca": "Alta", "Nombre": "A", "Latitud": -34.6457, "Longitud": -59.037031, "ICA": 50.7, "Calidad": "Media", "Temperatura (°C)": 26.0, "pH (upH)": 5.81, "Conductividad (µS/cm)": 151.1, "Sólidos Disueltos Totales (mg/L)": 74.54, "Turbiedad (NTU)": 41.5, "Saturación OD (%)": 35.2, "Nitratos (mg/L)": 2.8, "Fosfatos Totales (mg/L)": 2.26, "DBO5 (mg/L)": 3.4, "DQO (mg/L)": "29", "E. Coli (UFC/100mL)": 150 }, "geometry": { "type": "Point", "coordinates": [ -59.037031, -34.645700000000268 ] } },
{ "type": "Feature", "properties": { "Cuenca": "Alta", "Nombre": "LC1", "Latitud": -34.685175, "Longitud": -59.027692, "ICA": 57.5, "Calidad": "Media", "Temperatura (°C)": 25.3, "pH (upH)": 6.78, "Conductividad (µS/cm)": 261.6, "Sólidos Disueltos Totales (mg/L)": 128.7, "Turbiedad (NTU)": 12.4, "Saturación OD (%)": 20.9, "Nitratos (mg/L)": 3.0, "Fosfatos Totales (mg/L)": 2.39, "DBO5 (mg/L)": 2.2, "DQO (mg/L)": "51", "E. Coli (UFC/100mL)": 40 }, "geometry": { "type": "Point", "coordinates": [ -59.027692, -34.685175000000278 ] } },
{ "type": "Feature", "properties": { "Cuenca": "Alta", "Nombre": "LC2", "Latitud": -34.664375, "Longitud": -58.946078, "ICA": 56.9, "Calidad": "Media", "Temperatura (°C)": 26.7, "pH (upH)": 6.81, "Conductividad (µS/cm)": 239.8, "Sólidos Disueltos Totales (mg/L)": 118.6, "Turbiedad (NTU)": 22.3, "Saturación OD (%)": 23.9, "Nitratos (mg/L)": 1.9, "Fosfatos Totales (mg/L)": 2.45, "DBO5 (mg/L)": 2.1, "DQO (mg/L)": "40", "E. Coli (UFC/100mL)": 70 }, "geometry": { "type": "Point", "coordinates": [ -58.946078, -34.664375000000277 ] } },
{ "type": "Feature", "properties": { "Cuenca": "Alta", "Nombre": "LC3", "Latitud": -34.665236, "Longitud": -58.929597, "ICA": 56.6, "Calidad": "Media", "Temperatura (°C)": 28.0, "pH (upH)": 6.22, "Conductividad (µS/cm)": 258.2, "Sólidos Disueltos Totales (mg/L)": 127.0, "Turbiedad (NTU)": 18.5, "Saturación OD (%)": 26.8, "Nitratos (mg/L)": 4.3, "Fosfatos Totales (mg/L)": 3.86, "DBO5 (mg/L)": 1.9, "DQO (mg/L)": "44", "E. Coli (UFC/100mL)": 120 }, "geometry": { "type": "Point", "coordinates": [ -58.929597, -34.665236000000263 ] } },
{ "type": "Feature", "properties": { "Cuenca": "Alta", "Nombre": "D1", "Latitud": -34.757308, "Longitud": -58.993669, "ICA": 54.5, "Calidad": "Media", "Temperatura (°C)": 25.0, "pH (upH)": 7.71, "Conductividad (µS/cm)": 492.8, "Sólidos Disueltos Totales (mg/L)": 242.0, "Turbiedad (NTU)": 25.8, "Saturación OD (%)": 43.6, "Nitratos (mg/L)": 2.5, "Fosfatos Totales (mg/L)": 4.22, "DBO5 (mg/L)": 5.7, "DQO (mg/L)": "101", "E. Coli (UFC/100mL)": 120 }, "geometry": { "type": "Point", "coordinates": [ -58.993669, -34.757308000000272 ] } },
{ "type": "Feature", "properties": { "Cuenca": "Alta", "Nombre": "D2", "Latitud": -34.722708, "Longitud": -58.955797, "ICA": 59.0, "Calidad": "Media", "Temperatura (°C)": 28.5, "pH (upH)": 8.19, "Conductividad (µS/cm)": 1038.4, "Sólidos Disueltos Totales (mg/L)": 678.7, "Turbiedad (NTU)": 22.2, "Saturación OD (%)": 78.7, "Nitratos (mg/L)": 8.2, "Fosfatos Totales (mg/L)": 1.29, "DBO5 (mg/L)": 4.4, "DQO (mg/L)": "24", "E. Coli (UFC/100mL)": 140 }, "geometry": { "type": "Point", "coordinates": [ -58.955797, -34.722708000000267 ] } },
{ "type": "Feature", "properties": { "Cuenca": "Alta", "Nombre": "D3", "Latitud": -34.698019, "Longitud": -58.909403, "ICA": 61.7, "Calidad": "Media", "Temperatura (°C)": 29.2, "pH (upH)": 7.56, "Conductividad (µS/cm)": 521.1, "Sólidos Disueltos Totales (mg/L)": 255.8, "Turbiedad (NTU)": 31.7, "Saturación OD (%)": 57.1, "Nitratos (mg/L)": 1.2, "Fosfatos Totales (mg/L)": 2.02, "DBO5 (mg/L)": 3.2, "DQO (mg/L)": "33", "E. Coli (UFC/100mL)": 110 }, "geometry": { "type": "Point", "coordinates": [ -58.920983333326234, -34.699394443961097 ] } },
{ "type": "Feature", "properties": { "Cuenca": "Media", "Nombre": "PR", "Latitud": -34.684914, "Longitud": -58.857875, "ICA": 62.5, "Calidad": "Media", "Temperatura (°C)": 21.8, "pH (upH)": 7.26, "Conductividad (µS/cm)": 239.5, "Sólidos Disueltos Totales (mg/L)": 117.8, "Turbiedad (NTU)": 45.3, "Saturación OD (%)": 81.5, "Nitratos (mg/L)": 7.4, "Fosfatos Totales (mg/L)": 2.33, "DBO5 (mg/L)": 5.0, "DQO (mg/L)": "32", "E. Coli (UFC/100mL)": 300 }, "geometry": { "type": "Point", "coordinates": [ -58.854131275476909, -34.684651292392211 ] } },
{ "type": "Feature", "properties": { "Cuenca": "Media", "Nombre": "Mi", "Latitud": -34.666214, "Longitud": -58.781417, "ICA": 61.1, "Calidad": "Media", "Temperatura (°C)": 22.0, "pH (upH)": 7.51, "Conductividad (µS/cm)": 262.9, "Sólidos Disueltos Totales (mg/L)": 129.3, "Turbiedad (NTU)": 58.0, "Saturación OD (%)": 79.6, "Nitratos (mg/L)": 4.6, "Fosfatos Totales (mg/L)": 2.51, "DBO5 (mg/L)": 4.0, "DQO (mg/L)": "29", "E. Coli (UFC/100mL)": 4000 }, "geometry": { "type": "Point", "coordinates": [ -58.781417, -34.666214000000274 ] } },
{ "type": "Feature", "properties": { "Cuenca": "Media", "Nombre": "R7", "Latitud": -34.659222, "Longitud": -58.756028, "ICA": 57.8, "Calidad": "Media", "Temperatura (°C)": 21.9, "pH (upH)": 7.44, "Conductividad (µS/cm)": 263.4, "Sólidos Disueltos Totales (mg/L)": 129.6, "Turbiedad (NTU)": 53.6, "Saturación OD (%)": 69.6, "Nitratos (mg/L)": 5.8, "Fosfatos Totales (mg/L)": 2.63, "DBO5 (mg/L)": 4.0, "DQO (mg/L)": "29", "E. Coli (UFC/100mL)": 10000 }, "geometry": { "type": "Point", "coordinates": [ -58.756028, -34.659222000000277 ] } },
{ "type": "Feature", "properties": { "Cuenca": "Media", "Nombre": "In", "Latitud": -34.651222, "Longitud": -58.745694, "ICA": 56.4, "Calidad": "Media", "Temperatura (°C)": 22.6, "pH (upH)": 7.52, "Conductividad (µS/cm)": 307.6, "Sólidos Disueltos Totales (mg/L)": 151.2, "Turbiedad (NTU)": 56.5, "Saturación OD (%)": 67.9, "Nitratos (mg/L)": 4.9, "Fosfatos Totales (mg/L)": 2.63, "DBO5 (mg/L)": 4.0, "DQO (mg/L)": "29", "E. Coli (UFC/100mL)": 50000 }, "geometry": { "type": "Point", "coordinates": [ -58.745694, -34.651222000000274 ] } },
{ "type": "Feature", "properties": { "Cuenca": "Media", "Nombre": "An", "Latitud": -34.642808, "Longitud": -58.732561, "ICA": 53.6, "Calidad": "Media", "Temperatura (°C)": 22.7, "pH (upH)": 7.47, "Conductividad (µS/cm)": 295.1, "Sólidos Disueltos Totales (mg/L)": 145.1, "Turbiedad (NTU)": 56.2, "Saturación OD (%)": 63.2, "Nitratos (mg/L)": 1.6, "Fosfatos Totales (mg/L)": 2.88, "DBO5 (mg/L)": 4.0, "DQO (mg/L)": "40", "E. Coli (UFC/100mL)": 110000 }, "geometry": { "type": "Point", "coordinates": [ -58.732561, -34.642808000000265 ] } },
{ "type": "Feature", "properties": { "Cuenca": "Media", "Nombre": "MF", "Latitud": -34.608306, "Longitud": -58.71725, "ICA": 56.1, "Calidad": "Media", "Temperatura (°C)": 22.8, "pH (upH)": 7.45, "Conductividad (µS/cm)": 355.0, "Sólidos Disueltos Totales (mg/L)": 174.4, "Turbiedad (NTU)": 50.4, "Saturación OD (%)": 56.7, "Nitratos (mg/L)": 1.7, "Fosfatos Totales (mg/L)": 2.82, "DBO5 (mg/L)": 3.0, "DQO (mg/L)": "45", "E. Coli (UFC/100mL)": 50000 }, "geometry": { "type": "Point", "coordinates": [ -58.71725, -34.608306000000283 ] } },
{ "type": "Feature", "properties": { "Cuenca": "Media", "Nombre": "GC", "Latitud": -34.582083, "Longitud": -58.6795, "ICA": 56.2, "Calidad": "Media", "Temperatura (°C)": 22.9, "pH (upH)": 7.48, "Conductividad (µS/cm)": 349.6, "Sólidos Disueltos Totales (mg/L)": 171.8, "Turbiedad (NTU)": 50.9, "Saturación OD (%)": 56.6, "Nitratos (mg/L)": 2.6, "Fosfatos Totales (mg/L)": 2.82, "DBO5 (mg/L)": 2.0, "DQO (mg/L)": "<10", "E. Coli (UFC/100mL)": 90000 }, "geometry": { "type": "Point", "coordinates": [ -58.6795, -34.582083000000267 ] } },
{ "type": "Feature", "properties": { "Cuenca": "Media", "Nombre": "R201", "Latitud": -34.566492, "Longitud": -58.65595, "ICA": 45.7, "Calidad": "Mala", "Temperatura (°C)": 23.0, "pH (upH)": 7.52, "Conductividad (µS/cm)": 408.1, "Sólidos Disueltos Totales (mg/L)": 200.4, "Turbiedad (NTU)": 45.2, "Saturación OD (%)": 50.4, "Nitratos (mg/L)": 7.5, "Fosfatos Totales (mg/L)": 3.18, "DBO5 (mg/L)": 5.0, "DQO (mg/L)": "26", "E. Coli (UFC/100mL)": 160000 }, "geometry": { "type": "Point", "coordinates": [ -58.65595, -34.56649200000026 ] } },
{ "type": "Feature", "properties": { "Cuenca": "Media", "Nombre": "R8", "Latitud": -34.562139, "Longitud": -58.644833, "ICA": 46.9, "Calidad": "Mala", "Temperatura (°C)": 23.4, "pH (upH)": 7.53, "Conductividad (µS/cm)": 411.5, "Sólidos Disueltos Totales (mg/L)": 202.1, "Turbiedad (NTU)": 44.6, "Saturación OD (%)": 50.5, "Nitratos (mg/L)": 8.8, "Fosfatos Totales (mg/L)": 3.43, "DBO5 (mg/L)": 3.0, "DQO (mg/L)": "33", "E. Coli (UFC/100mL)": 170000 }, "geometry": { "type": "Point", "coordinates": [ -58.644833, -34.562139000000272 ] } },
{ "type": "Feature", "properties": { "Cuenca": "Media", "Nombre": "CE", "Latitud": -34.54, "Longitud": -58.611667, "ICA": 42.4, "Calidad": "Mala", "Temperatura (°C)": 23.3, "pH (upH)": 7.57, "Conductividad (µS/cm)": 441.1, "Sólidos Disueltos Totales (mg/L)": 216.6, "Turbiedad (NTU)": 40.0, "Saturación OD (%)": 36.95, "Nitratos (mg/L)": 10.3, "Fosfatos Totales (mg/L)": 3.18, "DBO5 (mg/L)": 4.0, "DQO (mg/L)": "31", "E. Coli (UFC/100mL)": 190000 }, "geometry": { "type": "Point", "coordinates": [ -58.611667, -34.540000000000276 ] } },
{ "type": "Feature", "properties": { "Cuenca": "Baja", "Nombre": "R202", "Latitud": -34.48075, "Longitud": -58.604056, "ICA": 46.6, "Calidad": "Mala", "Temperatura (°C)": 23.3, "pH (upH)": 6.73, "Conductividad (µS/cm)": 531.5, "Sólidos Disueltos Totales (mg/L)": 260.9, "Turbiedad (NTU)": 23.3, "Saturación OD (%)": 16.17, "Nitratos (mg/L)": 3.7, "Fosfatos Totales (mg/L)": 2.94, "DBO5 (mg/L)": 2.0, "DQO (mg/L)": "33", "E. Coli (UFC/100mL)": 80000 }, "geometry": { "type": "Point", "coordinates": [ -58.604056, -34.480750000000278 ] } },
{ "type": "Feature", "properties": { "Cuenca": "Baja", "Nombre": "R24", "Latitud": -34.443669, "Longitud": -58.595369, "ICA": 43.5, "Calidad": "Mala", "Temperatura (°C)": 23.9, "pH (upH)": 6.93, "Conductividad (µS/cm)": 541.5, "Sólidos Disueltos Totales (mg/L)": 265.8, "Turbiedad (NTU)": 35.4, "Saturación OD (%)": 23.5, "Nitratos (mg/L)": 12.9, "Fosfatos Totales (mg/L)": 2.94, "DBO5 (mg/L)": 2.0, "DQO (mg/L)": "33", "E. Coli (UFC/100mL)": 100000 }, "geometry": { "type": "Point", "coordinates": [ -58.595369, -34.443669000000284 ] } },
{ "type": "Feature", "properties": { "Cuenca": "Baja", "Nombre": "R27", "Latitud": -34.405311, "Longitud": -58.623864, "ICA": 48.2, "Calidad": "Mala", "Temperatura (°C)": 23.4, "pH (upH)": 7.14, "Conductividad (µS/cm)": 532.0, "Sólidos Disueltos Totales (mg/L)": 261.2, "Turbiedad (NTU)": 17.2, "Saturación OD (%)": 24.25, "Nitratos (mg/L)": 9.0, "Fosfatos Totales (mg/L)": 3.12, "DBO5 (mg/L)": 1.9, "DQO (mg/L)": "<10", "E. Coli (UFC/100mL)": 11500 }, "geometry": { "type": "Point", "coordinates": [ -58.623864, -34.405311000000275 ] } },
{ "type": "Feature", "properties": { "Cuenca": "Baja", "Nombre": "RCh", "Latitud": -34.410222, "Longitud": -58.592922, "ICA": 47.9, "Calidad": "Mala", "Temperatura (°C)": 23.6, "pH (upH)": 7.19, "Conductividad (µS/cm)": 451.9, "Sólidos Disueltos Totales (mg/L)": 221.9, "Turbiedad (NTU)": 15.7, "Saturación OD (%)": 18.8, "Nitratos (mg/L)": 8.2, "Fosfatos Totales (mg/L)": 2.2, "DBO5 (mg/L)": 1.9, "DQO (mg/L)": "<10", "E. Coli (UFC/100mL)": 90000 }, "geometry": { "type": "Point", "coordinates": [ -58.592922, -34.41022200000026 ] } },
{ "type": "Feature", "properties": { "Cuenca": "Baja", "Nombre": "Ti", "Latitud": -34.422222, "Longitud": -58.581556, "ICA": 47.7, "Calidad": "Mala", "Temperatura (°C)": 23.4, "pH (upH)": 7.65, "Conductividad (µS/cm)": 540.3, "Sólidos Disueltos Totales (mg/L)": 265.2, "Turbiedad (NTU)": 26.8, "Saturación OD (%)": 24.25, "Nitratos (mg/L)": 3.8, "Fosfatos Totales (mg/L)": 2.94, "DBO5 (mg/L)": 4.0, "DQO (mg/L)": "19", "E. Coli (UFC/100mL)": 8300 }, "geometry": { "type": "Point", "coordinates": [ -58.581556, -34.422222000000268 ] } }
]
}
