{
"type": "FeatureCollection",
"name": "ICA_Invierno2025",
"crs": { "type": "name", "properties": { "name": "urn:ogc:def:crs:OGC:1.3:CRS84" } },
"features": [
{ "type": "Feature", "properties": { "Cuenca": "Alta", "Nombre": "A", "Latitud": -34.6457, "Longitud": -59.037031, "ICA": 59.96, "Calidad": "Media", "Temperatura (°C)": "-", "pH (upH)": 7.05, "Conductividad (µS/cm)": "-", "Sólidos Disueltos Totales (mg/L)": 130, "Turbiedad (NTU)": 35.3, "Saturación OD (%)": 104.0, "Nitratos (mg/L)": 8.6, "Fosfatos Totales (mg/L)": 1.01, "DBO5 (mg/L)": 30.0, "DQO (mg/L)": "-", "E. Coli (UFC/100mL)": 200 }, "geometry": { "type": "Point", "coordinates": [ -59.037031, -34.645700 ] } },
{ "type": "Feature", "properties": { "Cuenca": "Alta", "Nombre": "LC1", "Latitud": -34.685175, "Longitud": -59.027692, "ICA": 61.19, "Calidad": "Media", "Temperatura (°C)": "-", "pH (upH)": 7.95, "Conductividad (µS/cm)": "-", "Sólidos Disueltos Totales (mg/L)": 414, "Turbiedad (NTU)": 21.5, "Saturación OD (%)": 102.7, "Nitratos (mg/L)": 23.5, "Fosfatos Totales (mg/L)": 1.1, "DBO5 (mg/L)": 1.9, "DQO (mg/L)": "-", "E. Coli (UFC/100mL)": 490 }, "geometry": { "type": "Point", "coordinates": [ -59.027692, -34.685175 ] } },
{ "type": "Feature", "properties": { "Cuenca": "Alta", "Nombre": "LC2", "Latitud": -34.664375, "Longitud": -58.946078, "ICA": 48.84, "Calidad": "Mala", "Temperatura (°C)": "-", "pH (upH)": 7.67, "Conductividad (µS/cm)": "-", "Sólidos Disueltos Totales (mg/L)": 425, "Turbiedad (NTU)": 24.6, "Saturación OD (%)": 58.2, "Nitratos (mg/L)": 23.9, "Fosfatos Totales (mg/L)": 2.42, "DBO5 (mg/L)": 1.9, "DQO (mg/L)": "-", "E. Coli (UFC/100mL)": 22000 }, "geometry": { "type": "Point", "coordinates": [ -58.946078, -34.664375 ] } },
{ "type": "Feature", "properties": { "Cuenca": "Alta", "Nombre": "LC3", "Latitud": -34.665236, "Longitud": -58.929597, "ICA": 55.98, "Calidad": "Media", "Temperatura (°C)": "-", "pH (upH)": 7.74, "Conductividad (µS/cm)": "-", "Sólidos Disueltos Totales (mg/L)": 400, "Turbiedad (NTU)": 25.3, "Saturación OD (%)": 75.2, "Nitratos (mg/L)": 30.6, "Fosfatos Totales (mg/L)": 2.23, "DBO5 (mg/L)": 1.9, "DQO (mg/L)": "-", "E. Coli (UFC/100mL)": 560 }, "geometry": { "type": "Point", "coordinates": [ -58.929597, -34.665236 ] } },
{ "type": "Feature", "properties": { "Cuenca": "Alta", "Nombre": "D1", "Latitud": -34.757308, "Longitud": -58.993669, "ICA": 53.55, "Calidad": "Media", "Temperatura (°C)": "-", "pH (upH)": 7.37, "Conductividad (µS/cm)": "-", "Sólidos Disueltos Totales (mg/L)": 296, "Turbiedad (NTU)": 31.1, "Saturación OD (%)": 66.0, "Nitratos (mg/L)": 11.1, "Fosfatos Totales (mg/L)": 1.74, "DBO5 (mg/L)": 9.0, "DQO (mg/L)": "-", "E. Coli (UFC/100mL)": 450 }, "geometry": { "type": "Point", "coordinates": [ -58.993669, -34.757308 ] } },
{ "type": "Feature", "properties": { "Cuenca": "Alta", "Nombre": "D2", "Latitud": -34.722708, "Longitud": -58.955797, "ICA": 55.83, "Calidad": "Media", "Temperatura (°C)": "-", "pH (upH)": 7.67, "Conductividad (µS/cm)": "-", "Sólidos Disueltos Totales (mg/L)": 590, "Turbiedad (NTU)": 25.0, "Saturación OD (%)": 78.0, "Nitratos (mg/L)": 18.8, "Fosfatos Totales (mg/L)": 1.16, "DBO5 (mg/L)": 7.0, "DQO (mg/L)": "-", "E. Coli (UFC/100mL)": 170 }, "geometry": { "type": "Point", "coordinates": [ -58.955797, -34.722708 ] } },
{ "type": "Feature", "properties": { "Cuenca": "Alta", "Nombre": "D3", "Latitud": -34.699394, "Longitud": -58.920983, "ICA": 57.8, "Calidad": "Media", "Temperatura (°C)": "-", "pH (upH)": 7.38, "Conductividad (µS/cm)": "-", "Sólidos Disueltos Totales (mg/L)": 359, "Turbiedad (NTU)": 27.9, "Saturación OD (%)": 75.6, "Nitratos (mg/L)": 13.7, "Fosfatos Totales (mg/L)": 1.07, "DBO5 (mg/L)": 8.0, "DQO (mg/L)": "-", "E. Coli (UFC/100mL)": 110 }, "geometry": { "type": "Point", "coordinates": [ -58.920983, -34.699394 ] } },
{ "type": "Feature", "properties": { "Cuenca": "Media", "Nombre": "PR", "Latitud": -34.684651, "Longitud": -58.854131, "ICA": 57.09, "Calidad": "Media", "Temperatura (°C)": "-", "pH (upH)": 7.77, "Conductividad (µS/cm)": "-", "Sólidos Disueltos Totales (mg/L)": 256, "Turbiedad (NTU)": 67.4, "Saturación OD (%)": 94.4, "Nitratos (mg/L)": 0.4, "Fosfatos Totales (mg/L)": 1.74, "DBO5 (mg/L)": 1.9, "DQO (mg/L)": "-", "E. Coli (UFC/100mL)": 400 }, "geometry": { "type": "Point", "coordinates": [ -58.854131, -34.684651 ] } },
{ "type": "Feature", "properties": { "Cuenca": "Media", "Nombre": "Mi", "Latitud": -34.666214, "Longitud": -58.781417, "ICA": 47.67, "Calidad": "Mala", "Temperatura (°C)": "-", "pH (upH)": 7.71, "Conductividad (µS/cm)": "-", "Sólidos Disueltos Totales (mg/L)": 353, "Turbiedad (NTU)": 56.3, "Saturación OD (%)": 62.2, "Nitratos (mg/L)": 7.1, "Fosfatos Totales (mg/L)": 3.0, "DBO5 (mg/L)": 1.9, "DQO (mg/L)": "-", "E. Coli (UFC/100mL)": 26000 }, "geometry": { "type": "Point", "coordinates": [ -58.781417, -34.666214 ] } },
{ "type": "Feature", "properties": { "Cuenca": "Media", "Nombre": "R7", "Latitud": -34.659222, "Longitud": -58.756028, "ICA": 42.65, "Calidad": "Mala", "Temperatura (°C)": "-", "pH (upH)": 7.64, "Conductividad (µS/cm)": "-", "Sólidos Disueltos Totales (mg/L)": 389, "Turbiedad (NTU)": 58.4, "Saturación OD (%)": 37.1, "Nitratos (mg/L)": 8.0, "Fosfatos Totales (mg/L)": 3.37, "DBO5 (mg/L)": 1.9, "DQO (mg/L)": "-", "E. Coli (UFC/100mL)": 110000 }, "geometry": { "type": "Point", "coordinates": [ -58.756028, -34.659222 ] } },
{ "type": "Feature", "properties": { "Cuenca": "Media", "Nombre": "In", "Latitud": -34.651222, "Longitud": -58.745694, "ICA": 38.19, "Calidad": "Mala", "Temperatura (°C)": "-", "pH (upH)": 7.63, "Conductividad (µS/cm)": "-", "Sólidos Disueltos Totales (mg/L)": 469, "Turbiedad (NTU)": 47.0, "Saturación OD (%)": 34.2, "Nitratos (mg/L)": 16.5, "Fosfatos Totales (mg/L)": 3.76, "DBO5 (mg/L)": 1.9, "DQO (mg/L)": "-", "E. Coli (UFC/100mL)": 330000 }, "geometry": { "type": "Point", "coordinates": [ -58.745694, -34.651222 ] } },
{ "type": "Feature", "properties": { "Cuenca": "Media", "Nombre": "An", "Latitud": -34.642808, "Longitud": -58.732561, "ICA": 38.12, "Calidad": "Mala", "Temperatura (°C)": "-", "pH (upH)": 7.65, "Conductividad (µS/cm)": "-", "Sólidos Disueltos Totales (mg/L)": 481, "Turbiedad (NTU)": 40.7, "Saturación OD (%)": 19.4, "Nitratos (mg/L)": 14.8, "Fosfatos Totales (mg/L)": 3.58, "DBO5 (mg/L)": 1.9, "DQO (mg/L)": "-", "E. Coli (UFC/100mL)": 170000 }, "geometry": { "type": "Point", "coordinates": [ -58.732561, -34.642808 ] } },
{ "type": "Feature", "properties": { "Cuenca": "Media", "Nombre": "MF", "Latitud": -34.608306, "Longitud": -58.71725, "ICA": 45.98, "Calidad": "Mala", "Temperatura (°C)": "-", "pH (upH)": 7.65, "Conductividad (µS/cm)": "-", "Sólidos Disueltos Totales (mg/L)": 519, "Turbiedad (NTU)": 39.5, "Saturación OD (%)": 10.9, "Nitratos (mg/L)": 7.0, "Fosfatos Totales (mg/L)": 3.37, "DBO5 (mg/L)": 1.9, "DQO (mg/L)": "-", "E. Coli (UFC/100mL)": 30000 }, "geometry": { "type": "Point", "coordinates": [ -58.71725, -34.608306 ] } },
{ "type": "Feature", "properties": { "Cuenca": "Media", "Nombre": "GC", "Latitud": -34.582083, "Longitud": -58.6795, "ICA": 42.47, "Calidad": "Mala", "Temperatura (°C)": "-", "pH (upH)": 7.72, "Conductividad (µS/cm)": "-", "Sólidos Disueltos Totales (mg/L)": 564, "Turbiedad (NTU)": 26.3, "Saturación OD (%)": 11.7, "Nitratos (mg/L)": 6.1, "Fosfatos Totales (mg/L)": 3.34, "DBO5 (mg/L)": 1.9, "DQO (mg/L)": "-", "E. Coli (UFC/100mL)": 340000 }, "geometry": { "type": "Point", "coordinates": [ -58.6795, -34.582083 ] } },
{ "type": "Feature", "properties": { "Cuenca": "Media", "Nombre": "R201", "Latitud": -34.566492, "Longitud": -58.65595, "ICA": 40.25, "Calidad": "Mala", "Temperatura (°C)": "-", "pH (upH)": 7.69, "Conductividad (µS/cm)": "-", "Sólidos Disueltos Totales (mg/L)": 609, "Turbiedad (NTU)": 17.8, "Saturación OD (%)": 10.7, "Nitratos (mg/L)": 13.1, "Fosfatos Totales (mg/L)": 3.34, "DBO5 (mg/L)": 1.9, "DQO (mg/L)": "-", "E. Coli (UFC/100mL)": 230000 }, "geometry": { "type": "Point", "coordinates": [ -58.65595, -34.566492 ] } },
{ "type": "Feature", "properties": { "Cuenca": "Media", "Nombre": "R8", "Latitud": -34.562139, "Longitud": -58.644833, "ICA": 32.83, "Calidad": "Mala", "Temperatura (°C)": "-", "pH (upH)": 7.67, "Conductividad (µS/cm)": "-", "Sólidos Disueltos Totales (mg/L)": 680, "Turbiedad (NTU)": 60.0, "Saturación OD (%)": 7.7, "Nitratos (mg/L)": 6.1, "Fosfatos Totales (mg/L)": 3.4, "DBO5 (mg/L)": 72.0, "DQO (mg/L)": "-", "E. Coli (UFC/100mL)": 520000 }, "geometry": { "type": "Point", "coordinates": [ -58.644833, -34.562139 ] } },
{ "type": "Feature", "properties": { "Cuenca": "Media", "Nombre": "CE", "Latitud": -34.54, "Longitud": -58.611667, "ICA": 23.52, "Calidad": "Muy Mala", "Temperatura (°C)": "-", "pH (upH)": 7.86, "Conductividad (µS/cm)": "-", "Sólidos Disueltos Totales (mg/L)": 708, "Turbiedad (NTU)": 12.5, "Saturación OD (%)": 18.87, "Nitratos (mg/L)": 8.7, "Fosfatos Totales (mg/L)": 4.99, "DBO5 (mg/L)": 46.0, "DQO (mg/L)": "-", "E. Coli (UFC/100mL)": 610000 }, "geometry": { "type": "Point", "coordinates": [ -58.611667, -34.540000 ] } },
{ "type": "Feature", "properties": { "Cuenca": "Baja", "Nombre": "R202", "Latitud": -34.48075, "Longitud": -58.604056, "ICA": 33.59, "Calidad": "Mala", "Temperatura (°C)": "-", "pH (upH)": 7.9, "Conductividad (µS/cm)": "-", "Sólidos Disueltos Totales (mg/L)": 556, "Turbiedad (NTU)": 12.8, "Saturación OD (%)": 17.45, "Nitratos (mg/L)": 7.5, "Fosfatos Totales (mg/L)": 4.56, "DBO5 (mg/L)": 1.9, "DQO (mg/L)": "-", "E. Coli (UFC/100mL)": 390000 }, "geometry": { "type": "Point", "coordinates": [ -58.604056, -34.480750 ] } },
{ "type": "Feature", "properties": { "Cuenca": "Baja", "Nombre": "R24", "Latitud": -34.443669, "Longitud": -58.595369, "ICA": 34.7, "Calidad": "Mala", "Temperatura (°C)": "-", "pH (upH)": 7.81, "Conductividad (µS/cm)": "-", "Sólidos Disueltos Totales (mg/L)": 624, "Turbiedad (NTU)": 25.3, "Saturación OD (%)": 23.99, "Nitratos (mg/L)": 8.4, "Fosfatos Totales (mg/L)": 3.79, "DBO5 (mg/L)": 1.9, "DQO (mg/L)": "-", "E. Coli (UFC/100mL)": 170000 }, "geometry": { "type": "Point", "coordinates": [ -58.595369, -34.443669 ] } },
{ "type": "Feature", "properties": { "Cuenca": "Baja", "Nombre": "R27", "Latitud": -34.405311, "Longitud": -58.623864, "ICA": 33.1, "Calidad": "Mala", "Temperatura (°C)": "-", "pH (upH)": 8.03, "Conductividad (µS/cm)": "-", "Sólidos Disueltos Totales (mg/L)": 728, "Turbiedad (NTU)": 9.0, "Saturación OD (%)": 15.27, "Nitratos (mg/L)": 6.6, "Fosfatos Totales (mg/L)": 4.99, "DBO5 (mg/L)": 1.9, "DQO (mg/L)": "-", "E. Coli (UFC/100mL)": 1900000 }, "geometry": { "type": "Point", "coordinates": [ -58.623864, -34.405311 ] } },
{ "type": "Feature", "properties": { "Cuenca": "Baja", "Nombre": "RCh", "Latitud": -34.410222, "Longitud": -58.592922, "ICA": 44.04, "Calidad": "Mala", "Temperatura (°C)": "-", "pH (upH)": 7.25, "Conductividad (µS/cm)": "-", "Sólidos Disueltos Totales (mg/L)": 331, "Turbiedad (NTU)": 5.3, "Saturación OD (%)": 25.67, "Nitratos (mg/L)": 4.1, "Fosfatos Totales (mg/L)": 2.08, "DBO5 (mg/L)": 1.9, "DQO (mg/L)": "-", "E. Coli (UFC/100mL)": 20000 }, "geometry": { "type": "Point", "coordinates": [ -58.592922, -34.410222 ] } },
{ "type": "Feature", "properties": { "Cuenca": "Baja", "Nombre": "Ti", "Latitud": -34.422222, "Longitud": -58.581556, "ICA": 34.64, "Calidad": "Mala", "Temperatura (°C)": "-", "pH (upH)": 7.86, "Conductividad (µS/cm)": "-", "Sólidos Disueltos Totales (mg/L)": 637, "Turbiedad (NTU)": 7.1, "Saturación OD (%)": 25.56, "Nitratos (mg/L)": 7.6, "Fosfatos Totales (mg/L)": 4.59, "DBO5 (mg/L)": 1.9, "DQO (mg/L)": "-", "E. Coli (UFC/100mL)": 170000 }, "geometry": { "type": "Point", "coordinates": [ -58.581556, -34.422222 ] } }
]
}
