{
"type": "FeatureCollection",
"name": "ICA_Primavera2025",
"crs": { "type": "name", "properties": { "name": "urn:ogc:def:crs:OGC:1.3:CRS84" } },
"features": [
{ "type": "Feature", "properties": { "Cuenca": "Alta", "Nombre": "A", "Latitud": -34.6457, "Longitud": -59.037031, "ICA": "61.17", "Calidad": "Media", "Temperatura (°C)": "-", "pH (upH)": 7.22, "Conductividad (µS/cm)": "-", "Sólidos Disueltos Totales (mg/L)": "305", "Turbiedad (NTU)": "80.2", "Saturación OD (%)": 68.18, "Nitratos (mg/L)": 1.1, "Fosfatos Totales (mg/L)": "2.05", "DBO5 (mg/L)": "3.0", "DQO (mg/L)": "-", "E. Coli (UFC/100mL)": "170" }, "geometry": { "type": "Point", "coordinates": [ -59.037031, -34.645700 ] } },
{ "type": "Feature", "properties": { "Cuenca": "Alta", "Nombre": "LC1", "Latitud": -34.685175, "Longitud": -59.027692, "ICA": "54.44", "Calidad": "Media", "Temperatura (°C)": "-", "pH (upH)": 7.86, "Conductividad (µS/cm)": "-", "Sólidos Disueltos Totales (mg/L)": "597", "Turbiedad (NTU)": "49.0", "Saturación OD (%)": 61.94, "Nitratos (mg/L)": 16.8, "Fosfatos Totales (mg/L)": "1.19", "DBO5 (mg/L)": "2.0", "DQO (mg/L)": "-", "E. Coli (UFC/100mL)": "140" }, "geometry": { "type": "Point", "coordinates": [ -59.027692, -34.685175 ] } },
{ "type": "Feature", "properties": { "Cuenca": "Alta", "Nombre": "LC2", "Latitud": -34.664375, "Longitud": -58.946078, "ICA": "47.83", "Calidad": "Mala", "Temperatura (°C)": "-", "pH (upH)": 7.86, "Conductividad (µS/cm)": "-", "Sólidos Disueltos Totales (mg/L)": "585", "Turbiedad (NTU)": "48.0", "Saturación OD (%)": 50.58, "Nitratos (mg/L)": 29.0, "Fosfatos Totales (mg/L)": "2.26", "DBO5 (mg/L)": "2.0", "DQO (mg/L)": "-", "E. Coli (UFC/100mL)": "280" }, "geometry": { "type": "Point", "coordinates": [ -58.946078, -34.664375 ] } },
{ "type": "Feature", "properties": { "Cuenca": "Alta", "Nombre": "LC3", "Latitud": -34.665236, "Longitud": -58.929597, "ICA": "50.07", "Calidad": "Mala", "Temperatura (°C)": "-", "pH (upH)": 7.97, "Conductividad (µS/cm)": "-", "Sólidos Disueltos Totales (mg/L)": "584", "Turbiedad (NTU)": "50.9", "Saturación OD (%)": 67.11, "Nitratos (mg/L)": 31.2, "Fosfatos Totales (mg/L)": "2.69", "DBO5 (mg/L)": "3.0", "DQO (mg/L)": "-", "E. Coli (UFC/100mL)": "410" }, "geometry": { "type": "Point", "coordinates": [ -58.929597, -34.665236 ] } },
{ "type": "Feature", "properties": { "Cuenca": "Alta", "Nombre": "D1", "Latitud": -34.757308, "Longitud": -58.993669, "ICA": "48.00", "Calidad": "Mala", "Temperatura (°C)": "-", "pH (upH)": 7.51, "Conductividad (µS/cm)": "-", "Sólidos Disueltos Totales (mg/L)": "590", "Turbiedad (NTU)": "76.3", "Saturación OD (%)": 55.67, "Nitratos (mg/L)": 10.3, "Fosfatos Totales (mg/L)": "1.65", "DBO5 (mg/L)": "5.0", "DQO (mg/L)": "-", "E. Coli (UFC/100mL)": "800" }, "geometry": { "type": "Point", "coordinates": [ -58.993669, -34.757308 ] } },
{ "type": "Feature", "properties": { "Cuenca": "Alta", "Nombre": "D2", "Latitud": -34.722708, "Longitud": -58.955797, "ICA": "55.69", "Calidad": "Media", "Temperatura (°C)": "-", "pH (upH)": 8.03, "Conductividad (µS/cm)": "-", "Sólidos Disueltos Totales (mg/L)": "864", "Turbiedad (NTU)": "50.1", "Saturación OD (%)": 85.77, "Nitratos (mg/L)": 13.9, "Fosfatos Totales (mg/L)": "1.19", "DBO5 (mg/L)": "8.0", "DQO (mg/L)": "-", "E. Coli (UFC/100mL)": "-" }, "geometry": { "type": "Point", "coordinates": [ -58.955797, -34.722708 ] } },
{ "type": "Feature", "properties": { "Cuenca": "Alta", "Nombre": "D3", "Latitud": -34.699394, "Longitud": -58.920983, "ICA": "55.68", "Calidad": "Media", "Temperatura (°C)": "-", "pH (upH)": 8.2, "Conductividad (µS/cm)": "-", "Sólidos Disueltos Totales (mg/L)": "664", "Turbiedad (NTU)": "55.2", "Saturación OD (%)": 124.16, "Nitratos (mg/L)": 8.4, "Fosfatos Totales (mg/L)": "1.32", "DBO5 (mg/L)": "7.0", "DQO (mg/L)": "-", "E. Coli (UFC/100mL)": "100" }, "geometry": { "type": "Point", "coordinates": [ -58.920983, -34.699394 ] } },
{ "type": "Feature", "properties": { "Cuenca": "Media", "Nombre": "PR", "Latitud": -34.684651, "Longitud": -58.854131, "ICA": "50.69", "Calidad": "Mala", "Temperatura (°C)": "-", "pH (upH)": 7.59, "Conductividad (µS/cm)": "-", "Sólidos Disueltos Totales (mg/L)": "370", "Turbiedad (NTU)": "102.0", "Saturación OD (%)": 93.35, "Nitratos (mg/L)": 17.5, "Fosfatos Totales (mg/L)": "2.51", "DBO5 (mg/L)": "13.0", "DQO (mg/L)": "-", "E. Coli (UFC/100mL)": "200" }, "geometry": { "type": "Point", "coordinates": [ -58.854131, -34.684651 ] } },
{ "type": "Feature", "properties": { "Cuenca": "Media", "Nombre": "Mi", "Latitud": -34.666214, "Longitud": -58.781417, "ICA": "43.62", "Calidad": "Mala", "Temperatura (°C)": "-", "pH (upH)": 7.8, "Conductividad (µS/cm)": "-", "Sólidos Disueltos Totales (mg/L)": "423", "Turbiedad (NTU)": "92.4", "Saturación OD (%)": 75.4, "Nitratos (mg/L)": 19.7, "Fosfatos Totales (mg/L)": "3.73", "DBO5 (mg/L)": "11.0", "DQO (mg/L)": "-", "E. Coli (UFC/100mL)": "17000" }, "geometry": { "type": "Point", "coordinates": [ -58.781417, -34.666214 ] } },
{ "type": "Feature", "properties": { "Cuenca": "Media", "Nombre": "R7", "Latitud": -34.659222, "Longitud": -58.756028, "ICA": "38.66", "Calidad": "Mala", "Temperatura (°C)": "-", "pH (upH)": 7.44, "Conductividad (µS/cm)": "-", "Sólidos Disueltos Totales (mg/L)": "445", "Turbiedad (NTU)": "87.6", "Saturación OD (%)": 42.93, "Nitratos (mg/L)": 20.8, "Fosfatos Totales (mg/L)": "3.73", "DBO5 (mg/L)": "5.0", "DQO (mg/L)": "-", "E. Coli (UFC/100mL)": "10000" }, "geometry": { "type": "Point", "coordinates": [ -58.756028, -34.659222 ] } },
{ "type": "Feature", "properties": { "Cuenca": "Media", "Nombre": "In", "Latitud": -34.651222, "Longitud": -58.745694, "ICA": "29.62", "Calidad": "Mala", "Temperatura (°C)": "-", "pH (upH)": 7.7, "Conductividad (µS/cm)": "-", "Sólidos Disueltos Totales (mg/L)": "488", "Turbiedad (NTU)": "79.3", "Saturación OD (%)": 43.18, "Nitratos (mg/L)": 22.9, "Fosfatos Totales (mg/L)": "4.53", "DBO5 (mg/L)": "22.0", "DQO (mg/L)": "-", "E. Coli (UFC/100mL)": "100000" }, "geometry": { "type": "Point", "coordinates": [ -58.745694, -34.651222 ] } },
{ "type": "Feature", "properties": { "Cuenca": "Media", "Nombre": "An", "Latitud": -34.642808, "Longitud": -58.732561, "ICA": "25.51", "Calidad": "Muy Mala", "Temperatura (°C)": "-", "pH (upH)": 7.56, "Conductividad (µS/cm)": "-", "Sólidos Disueltos Totales (mg/L)": "511", "Turbiedad (NTU)": "76.2", "Saturación OD (%)": 24.44, "Nitratos (mg/L)": 22.9, "Fosfatos Totales (mg/L)": "4.28", "DBO5 (mg/L)": "21.0", "DQO (mg/L)": "-", "E. Coli (UFC/100mL)": "200000" }, "geometry": { "type": "Point", "coordinates": [ -58.732561, -34.642808 ] } },
{ "type": "Feature", "properties": { "Cuenca": "Media", "Nombre": "MF", "Latitud": -34.608306, "Longitud": -58.71725, "ICA": "34.14", "Calidad": "Mala", "Temperatura (°C)": "-", "pH (upH)": 7.71, "Conductividad (µS/cm)": "-", "Sólidos Disueltos Totales (mg/L)": "582", "Turbiedad (NTU)": "57.9", "Saturación OD (%)": 12.91, "Nitratos (mg/L)": 19.2, "Fosfatos Totales (mg/L)": "5.08", "DBO5 (mg/L)": "5.0", "DQO (mg/L)": "-", "E. Coli (UFC/100mL)": "40000" }, "geometry": { "type": "Point", "coordinates": [ -58.71725, -34.608306 ] } },
{ "type": "Feature", "properties": { "Cuenca": "Media", "Nombre": "GC", "Latitud": -34.582083, "Longitud": -58.6795, "ICA": "32.33", "Calidad": "Mala", "Temperatura (°C)": "-", "pH (upH)": 7.56, "Conductividad (µS/cm)": "-", "Sólidos Disueltos Totales (mg/L)": "623", "Turbiedad (NTU)": "49.4", "Saturación OD (%)": 15.58, "Nitratos (mg/L)": 16.5, "Fosfatos Totales (mg/L)": "5.39", "DBO5 (mg/L)": "9.0", "DQO (mg/L)": "-", "E. Coli (UFC/100mL)": "100000" }, "geometry": { "type": "Point", "coordinates": [ -58.6795, -34.582083 ] } },
{ "type": "Feature", "properties": { "Cuenca": "Media", "Nombre": "R201", "Latitud": -34.566492, "Longitud": -58.65595, "ICA": "27.91", "Calidad": "Mala", "Temperatura (°C)": "-", "pH (upH)": 7.77, "Conductividad (µS/cm)": "-", "Sólidos Disueltos Totales (mg/L)": "704", "Turbiedad (NTU)": "46.9", "Saturación OD (%)": 15.51, "Nitratos (mg/L)": 21.7, "Fosfatos Totales (mg/L)": "6.61", "DBO5 (mg/L)": "9.0", "DQO (mg/L)": "-", "E. Coli (UFC/100mL)": "1100000" }, "geometry": { "type": "Point", "coordinates": [ -58.65595, -34.566492 ] } },
{ "type": "Feature", "properties": { "Cuenca": "Media", "Nombre": "R8", "Latitud": -34.562139, "Longitud": -58.644833, "ICA": "30.33", "Calidad": "Mala", "Temperatura (°C)": "-", "pH (upH)": 7.25, "Conductividad (µS/cm)": "-", "Sólidos Disueltos Totales (mg/L)": "629", "Turbiedad (NTU)": "149.0", "Saturación OD (%)": 8.58, "Nitratos (mg/L)": 13.8, "Fosfatos Totales (mg/L)": "9.98", "DBO5 (mg/L)": "2.0", "DQO (mg/L)": "-", "E. Coli (UFC/100mL)": "390000" }, "geometry": { "type": "Point", "coordinates": [ -58.644833, -34.562139 ] } },
{ "type": "Feature", "properties": { "Cuenca": "Media", "Nombre": "CE", "Latitud": -34.54, "Longitud": -58.611667, "ICA": "32.88", "Calidad": "Mala", "Temperatura (°C)": "-", "pH (upH)": 7.82, "Conductividad (µS/cm)": "-", "Sólidos Disueltos Totales (mg/L)": "673", "Turbiedad (NTU)": "30.1", "Saturación OD (%)": 32.33, "Nitratos (mg/L)": 14.4, "Fosfatos Totales (mg/L)": "-", "DBO5 (mg/L)": "17.0", "DQO (mg/L)": "-", "E. Coli (UFC/100mL)": "600000" }, "geometry": { "type": "Point", "coordinates": [ -58.611667, -34.540000 ] } },
{ "type": "Feature", "properties": { "Cuenca": "Baja", "Nombre": "R202", "Latitud": -34.48075, "Longitud": -58.604056, "ICA": "-", "Calidad": "Sin Datos", "Temperatura (°C)": "-", "pH (upH)": 7.8, "Conductividad (µS/cm)": "-", "Sólidos Disueltos Totales (mg/L)": "-", "Turbiedad (NTU)": "-", "Saturación OD (%)": 46.19, "Nitratos (mg/L)": 19.5, "Fosfatos Totales (mg/L)": "-", "DBO5 (mg/L)": "-", "DQO (mg/L)": "-", "E. Coli (UFC/100mL)": "-" }, "geometry": { "type": "Point", "coordinates": [ -58.604056, -34.480750 ] } },
{ "type": "Feature", "properties": { "Cuenca": "Baja", "Nombre": "R24", "Latitud": -34.443669, "Longitud": -58.595369, "ICA": "47.86", "Calidad": "Mala", "Temperatura (°C)": "-", "pH (upH)": 7.76, "Conductividad (µS/cm)": "-", "Sólidos Disueltos Totales (mg/L)": "605", "Turbiedad (NTU)": "20.7", "Saturación OD (%)": 46.19, "Nitratos (mg/L)": 13.3, "Fosfatos Totales (mg/L)": "-", "DBO5 (mg/L)": "5.0", "DQO (mg/L)": "-", "E. Coli (UFC/100mL)": "9900" }, "geometry": { "type": "Point", "coordinates": [ -58.595369, -34.443669 ] } },
{ "type": "Feature", "properties": { "Cuenca": "Baja", "Nombre": "R27", "Latitud": -34.405311, "Longitud": -58.623864, "ICA": "59.84", "Calidad": "Media", "Temperatura (°C)": "-", "pH (upH)": 7.6, "Conductividad (µS/cm)": "-", "Sólidos Disueltos Totales (mg/L)": "510", "Turbiedad (NTU)": "24.6", "Saturación OD (%)": 73.61, "Nitratos (mg/L)": 8.9, "Fosfatos Totales (mg/L)": "-", "DBO5 (mg/L)": "2.0", "DQO (mg/L)": "-", "E. Coli (UFC/100mL)": "16000" }, "geometry": { "type": "Point", "coordinates": [ -58.623864, -34.405311 ] } },
{ "type": "Feature", "properties": { "Cuenca": "Baja", "Nombre": "RCh", "Latitud": -34.410222, "Longitud": -58.592922, "ICA": "57.79", "Calidad": "Media", "Temperatura (°C)": "-", "pH (upH)": 7.27, "Conductividad (µS/cm)": "-", "Sólidos Disueltos Totales (mg/L)": "343", "Turbiedad (NTU)": "20.2", "Saturación OD (%)": 53.22, "Nitratos (mg/L)": 4.8, "Fosfatos Totales (mg/L)": "-", "DBO5 (mg/L)": "2.0", "DQO (mg/L)": "-", "E. Coli (UFC/100mL)": "60000" }, "geometry": { "type": "Point", "coordinates": [ -58.592922, -34.410222 ] } },
{ "type": "Feature", "properties": { "Cuenca": "Baja", "Nombre": "Ti", "Latitud": -34.422222, "Longitud": -58.581556, "ICA": "51.07", "Calidad": "Media", "Temperatura (°C)": "-", "pH (upH)": 7.66, "Conductividad (µS/cm)": "-", "Sólidos Disueltos Totales (mg/L)": "504", "Turbiedad (NTU)": "27.8", "Saturación OD (%)": 60.02, "Nitratos (mg/L)": 14.4, "Fosfatos Totales (mg/L)": "-", "DBO5 (mg/L)": "5.0", "DQO (mg/L)": "-", "E. Coli (UFC/100mL)": "10000" }, "geometry": { "type": "Point", "coordinates": [ -58.581556, -34.422222 ] } }
]
}
